{
  "type": "FeatureCollection",
  "features": [
    {
      "type": "Feature",
      "properties": {
        "norad_id": 66554,
        "name": "GLOBAL-33",
        "group": "last-30-days",
        "lat": 2.6908592624059735,
        "lon": 64.56063762929631,
        "alt_km": 468.1340829080091,
        "timestamp": "2025-12-11T22:43:46.023649+00:00",
        "meta_object_name": "GLOBAL-33",
        "meta_object_id": "2025-267A",
        "meta_epoch": "2025-12-11T14:53:12.552288",
        "meta_mean_motion": 15.31613043,
        "meta_eccentricity": 0.00043712,
        "meta_inclination": 42.0212,
        "meta_ra_of_asc_node": 63.4559,
        "meta_arg_of_pericenter": 46.3547,
        "meta_mean_anomaly": 313.7652,
        "meta_ephemeris_type": 0,
        "meta_classification_type": "U",
        "meta_norad_cat_id": 66554,
        "meta_element_set_no": 999,
        "meta_rev_at_epoch": 323,
        "meta_bstar": 0.00061477883,
        "meta_mean_motion_dot": 0.00018974,
        "meta_mean_motion_ddot": 0,
        "tle_line1": "1 66554U 25267A   25345.62028417  .00018974  00000+0  61478-3 0  9994",
        "tle_line2": "2 66554  42.0212  63.4559 0004371  46.3547 313.7652 15.31613043  3237"
      },
      "geometry": {
        "type": "Point",
        "coordinates": [
          64.56063762929631,
          2.6908592624059735
        ]
      }
    },
    {
      "type": "Feature",
      "properties": {
        "norad_id": 66555,
        "name": "ELECTRON KICK STAGE R/B",
        "group": "last-30-days",
        "lat": 37.7036415965043,
        "lon": 120.56751052057386,
        "alt_km": 457.2703940777328,
        "timestamp": "2025-12-11T22:43:46.023659+00:00",
        "meta_object_name": "ELECTRON KICK STAGE R/B",
        "meta_object_id": "2025-267B",
        "meta_epoch": "2025-12-11T14:37:24.915360",
        "meta_mean_motion": 15.32723055,
        "meta_eccentricity": 0.00065972,
        "meta_inclination": 42.0196,
        "meta_ra_of_asc_node": 63.3722,
        "meta_arg_of_pericenter": 43.8355,
        "meta_mean_anomaly": 316.3006,
        "meta_ephemeris_type": 0,
        "meta_classification_type": "U",
        "meta_norad_cat_id": 66555,
        "meta_element_set_no": 999,
        "meta_rev_at_epoch": 323,
        "meta_bstar": 0.0011433379,
        "meta_mean_motion_dot": 0.00036872,
        "meta_mean_motion_ddot": 0,
        "tle_line1": "1 66555U 25267B   25345.60931615  .00036872  00000+0  11433-2 0  9998",
        "tle_line2": "2 66555  42.0196  63.3722 0006597  43.8355 316.3006 15.32723055  3239"
      },
      "geometry": {
        "type": "Point",
        "coordinates": [
          120.56751052057386,
          37.7036415965043
        ]
      }
    },
    {
      "type": "Feature",
      "properties": {
        "norad_id": 66557,
        "name": "STARLINK-35699",
        "group": "last-30-days",
        "lat": -7.730357951188716,
        "lon": 117.45915781074865,
        "alt_km": 415.3730348816316,
        "timestamp": "2025-12-11T22:43:46.023671+00:00",
        "meta_object_name": "STARLINK-35699",
        "meta_object_id": "2025-268A",
        "meta_epoch": "2025-12-11T14:00:01.999872",
        "meta_mean_motion": 15.50711148,
        "meta_eccentricity": 0.0001584,
        "meta_inclination": 42.9997,
        "meta_ra_of_asc_node": 127.9638,
        "meta_arg_of_pericenter": 257.825,
        "meta_mean_anomaly": 218.037,
        "meta_ephemeris_type": 0,
        "meta_classification_type": "U",
        "meta_norad_cat_id": 66557,
        "meta_element_set_no": 999,
        "meta_rev_at_epoch": 448,
        "meta_bstar": -0.00026010979,
        "meta_mean_motion_dot": -0.00015643,
        "meta_mean_motion_ddot": 0,
        "tle_line1": "1 66557U 25268A   25345.58335648 -.00015643  00000+0 -26011-3 0  9996",
        "tle_line2": "2 66557  42.9997 127.9638 0001584 257.8250 218.0370 15.50711148  4484"
      },
      "geometry": {
        "type": "Point",
        "coordinates": [
          117.45915781074865,
          -7.730357951188716
        ]
      }
    },
    {
      "type": "Feature",
      "properties": {
        "norad_id": 66558,
        "name": "STARLINK-35695",
        "group": "last-30-days",
        "lat": -6.514790089496346,
        "lon": 118.79140369874902,
        "alt_km": 415.4569145774294,
        "timestamp": "2025-12-11T22:43:46.023684+00:00",
        "meta_object_name": "STARLINK-35695",
        "meta_object_id": "2025-268B",
        "meta_epoch": "2025-12-11T14:00:01.999872",
        "meta_mean_motion": 15.50668257,
        "meta_eccentricity": 0.0003544,
        "meta_inclination": 42.9998,
        "meta_ra_of_asc_node": 127.9587,
        "meta_arg_of_pericenter": 263.7088,
        "meta_mean_anomaly": 214.0541,
        "meta_ephemeris_type": 0,
        "meta_classification_type": "U",
        "meta_norad_cat_id": 66558,
        "meta_element_set_no": 999,
        "meta_rev_at_epoch": 448,
        "meta_bstar": -0.0026715087,
        "meta_mean_motion_dot": -0.00154553,
        "meta_mean_motion_ddot": 0,
        "tle_line1": "1 66558U 25268B   25345.58335648 -.00154553  00000+0 -26715-2 0  9991",
        "tle_line2": "2 66558  42.9998 127.9587 0003544 263.7088 214.0541 15.50668257  4480"
      },
      "geometry": {
        "type": "Point",
        "coordinates": [
          118.79140369874902,
          -6.514790089496346
        ]
      }
    },
    {
      "type": "Feature",
      "properties": {
        "norad_id": 66559,
        "name": "STARLINK-35419",
        "group": "last-30-days",
        "lat": -5.243586293889381,
        "lon": 120.17501690593342,
        "alt_km": 415.3731846487399,
        "timestamp": "2025-12-11T22:43:46.023695+00:00",
        "meta_object_name": "STARLINK-35419",
        "meta_object_id": "2025-268C",
        "meta_epoch": "2025-12-11T14:00:01.999872",
        "meta_mean_motion": 15.50503409,
        "meta_eccentricity": 0.00015923,
        "meta_inclination": 42.9998,
        "meta_ra_of_asc_node": 127.9548,
        "meta_arg_of_pericenter": 269.2908,
        "meta_mean_anomaly": 210.4831,
        "meta_ephemeris_type": 0,
        "meta_classification_type": "U",
        "meta_norad_cat_id": 66559,
        "meta_element_set_no": 999,
        "meta_rev_at_epoch": 448,
        "meta_bstar": 0.0010744243,
        "meta_mean_motion_dot": 0.00063029,
        "meta_mean_motion_ddot": 0,
        "tle_line1": "1 66559U 25268C   25345.58335648  .00063029  00000+0  10744-2 0  9992",
        "tle_line2": "2 66559  42.9998 127.9548 0001592 269.2908 210.4831 15.50503409  4480"
      },
      "geometry": {
        "type": "Point",
        "coordinates": [
          120.17501690593342,
          -5.243586293889381
        ]
      }
    },
    {
      "type": "Feature",
      "properties": {
        "norad_id": 66560,
        "name": "STARLINK-35411",
        "group": "last-30-days",
        "lat": -3.9744831834267966,
        "lon": 121.54624173670352,
        "alt_km": 415.2593638241224,
        "timestamp": "2025-12-11T22:43:46.023707+00:00",
        "meta_object_name": "STARLINK-35411",
        "meta_object_id": "2025-268D",
        "meta_epoch": "2025-12-11T14:00:01.999872",
        "meta_mean_motion": 15.50508267,
        "meta_eccentricity": 0.00018373,
        "meta_inclination": 42.9998,
        "meta_ra_of_asc_node": 127.95,
        "meta_arg_of_pericenter": 268.0294,
        "meta_mean_anomaly": 213.607,
        "meta_ephemeris_type": 0,
        "meta_classification_type": "U",
        "meta_norad_cat_id": 66560,
        "meta_element_set_no": 999,
        "meta_rev_at_epoch": 448,
        "meta_bstar": 0.00096466707,
        "meta_mean_motion_dot": 0.00056518,
        "meta_mean_motion_ddot": 0,
        "tle_line1": "1 66560U 25268D   25345.58335648  .00056518  00000+0  96467-3 0  9996",
        "tle_line2": "2 66560  42.9998 127.9500 0001837 268.0294 213.6070 15.50508267  4484"
      },
      "geometry": {
        "type": "Point",
        "coordinates": [
          121.54624173670352,
          -3.9744831834267966
        ]
      }
    },
    {
      "type": "Feature",
      "properties": {
        "norad_id": 66561,
        "name": "STARLINK-35305",
        "group": "last-30-days",
        "lat": -1.2840252480762746,
        "lon": 124.43404127879215,
        "alt_km": 415.0247173959833,
        "timestamp": "2025-12-11T22:43:46.023717+00:00",
        "meta_object_name": "STARLINK-35305",
        "meta_object_id": "2025-268E",
        "meta_epoch": "2025-12-11T14:00:01.999872",
        "meta_mean_motion": 15.50671788,
        "meta_eccentricity": 0.00013442,
        "meta_inclination": 42.9997,
        "meta_ra_of_asc_node": 127.9403,
        "meta_arg_of_pericenter": 275.445,
        "meta_mean_anomaly": 210.0657,
        "meta_ephemeris_type": 0,
        "meta_classification_type": "U",
        "meta_norad_cat_id": 66561,
        "meta_element_set_no": 999,
        "meta_rev_at_epoch": 443,
        "meta_bstar": -0.0037608812,
        "meta_mean_motion_dot": -0.00215717,
        "meta_mean_motion_ddot": 0,
        "tle_line1": "1 66561U 25268E   25345.58335648 -.00215717  00000+0 -37609-2 0  9999",
        "tle_line2": "2 66561  42.9997 127.9403 0001344 275.4450 210.0657 15.50671788  4431"
      },
      "geometry": {
        "type": "Point",
        "coordinates": [
          124.43404127879215,
          -1.2840252480762746
        ]
      }
    }
  ]
}